[{"OBJECT_NAME":"PLEIADES NEO 4","OBJECT_ID":"2021-073E","EPOCH":"2026-03-09T22:43:10.158240","MEAN_MOTION":14.81670727,"ECCENTRICITY":0.00013011,"INCLINATION":97.8928,"RA_OF_ASC_NODE":145.1333,"ARG_OF_PERICENTER":92.4306,"MEAN_ANOMALY":267.7056,"EPHEMERIS_TYPE":0,"CLASSIFICATION_TYPE":"U","NORAD_CAT_ID":49070,"ELEMENT_SET_NO":999,"REV_AT_EPOCH":24667,"BSTAR":-4.8245874e-5,"MEAN_MOTION_DOT":-4.32e-6,"MEAN_MOTION_DDOT":0},{"OBJECT_NAME":"KUIPER-00044","OBJECT_ID":"2025-134F","EPOCH":"2026-03-09T16:23:00.700800","MEAN_MOTION":14.7995278,"ECCENTRICITY":0.00078916,"INCLINATION":51.9007,"RA_OF_ASC_NODE":246.622,"ARG_OF_PERICENTER":275.8544,"MEAN_ANOMALY":84.1519,"EPHEMERIS_TYPE":0,"CLASSIFICATION_TYPE":"U","NORAD_CAT_ID":64505,"ELEMENT_SET_NO":999,"REV_AT_EPOCH":3988,"BSTAR":0.00057894688,"MEAN_MOTION_DOT":4.198e-5,"MEAN_MOTION_DDOT":0}]
